CCSDS_OEM_VERS = 1.0
CREATION_DATE  = 2017-05-11T11:56:37
ORIGINATOR     = GMAT USER

META_START
OBJECT_NAME          = MOPSSat_alt_35785_km_RAAN_270_069
OBJECT_ID            = SatId
CENTER_NAME          = Earth
REF_FRAME            = EME2000
TIME_SYSTEM          = UTC
START_TIME           = 2017-01-01T00:00:00.000
USEABLE_START_TIME   = 2017-01-01T00:00:00.000
USEABLE_STOP_TIME    = 2017-01-02T00:00:00.000
STOP_TIME            = 2017-01-02T00:00:00.000
INTERPOLATION        = Lagrange
INTERPOLATION_DEGREE = 7 
META_STOP


                                                                                   

2017-01-01T10:23:20.000   1.695697932399326e+04   3.864370663093400e+04  -1.115113538961235e+00  -2.812673296400559e+00   1.235277439923713e+00   3.936688505704351e-05
2017-01-01T10:23:30.000   1.692884809681557e+04   3.865604915574619e+04  -1.114719455436986e+00  -2.813572000106221e+00   1.233227461952621e+00   3.944982151489839e-05
2017-01-01T10:23:40.000   1.690070788977343e+04   3.866837117764319e+04  -1.114324542538523e+00  -2.814469210891240e+00   1.231176831323848e+00   3.953275907731840e-05
2017-01-01T10:23:50.000   1.687255871782911e+04   3.868067269008959e+04  -1.113928800255508e+00  -2.815364928282053e+00   1.229125549125139e+00   3.961569768407504e-05
2017-01-01T10:24:00.000   1.684440059593002e+04   3.869295368656980e+04  -1.113532228577941e+00  -2.816259151806532e+00   1.227073616443148e+00   3.969863727499316e-05
2017-01-01T10:24:10.000   1.681623353909387e+04   3.870521416055013e+04  -1.113134827497338e+00  -2.817151880991230e+00   1.225021034369650e+00   3.978157778969705e-05
2017-01-01T10:24:20.000   1.678805756237620e+04   3.871745410549465e+04  -1.112736597006319e+00  -2.818043115362531e+00   1.222967803999172e+00   3.986451916771127e-05
2017-01-01T10:24:30.000   1.675987268085405e+04   3.872967351487088e+04  -1.112337537098343e+00  -2.818932854447070e+00   1.220913926427806e+00   3.994746134850455e-05
2017-01-01T10:24:40.000   1.673167890959228e+04   3.874187238216447e+04  -1.111937647767229e+00  -2.819821097772796e+00   1.218859402750749e+00   4.003040427158875e-05
2017-01-01T10:24:50.000   1.670347626362826e+04   3.875405070088724e+04  -1.111536929006979e+00  -2.820707844869556e+00   1.216804234061192e+00   4.011334787656864e-05
2017-01-01T10:25:00.000   1.667526475793807e+04   3.876620846458997e+04  -1.111135380811250e+00  -2.821593095270037e+00   1.214748421447854e+00   4.019629210323505e-05
2017-01-01T10:25:10.000   1.664704440752237e+04   3.877834566682621e+04  -1.110733003174598e+00  -2.822476848507119e+00   1.212691966001247e+00   4.027923689131595e-05
2017-01-01T10:25:20.000   1.661881522703383e+04   3.879046230131010e+04  -1.110329796087095e+00  -2.823359104125373e+00   1.210634868786510e+00   4.036218218155739e-05
2017-01-01T10:25:30.000   1.659057723122841e+04   3.880255836172455e+04  -1.109925759540831e+00  -2.824239861667091e+00   1.208577130876317e+00   4.044512791441245e-05
2017-01-01T10:25:40.000   1.656233043479495e+04   3.881463384179405e+04  -1.109520893527469e+00  -2.825119120677591e+00   1.206518753338437e+00   4.052807403053621e-05
2017-01-01T10:25:50.000   1.653407485301547e+04   3.882668873500204e+04  -1.109115198047701e+00  -2.825996880684634e+00   1.204459737283865e+00   4.061102046886541e-05
2017-01-01T10:26:00.000   1.650581050110483e+04   3.883872303487374e+04  -1.108708673101798e+00  -2.826873141219017e+00   1.202400083818699e+00   4.069396716853845e-05
2017-01-01T10:26:10.000   1.647753739438119e+04   3.885073673490289e+04  -1.108301318692038e+00  -2.827747901809245e+00   1.200339794056556e+00   4.077691406840201e-05
2017-01-01T10:26:20.000   1.644925554781541e+04   3.886272982874591e+04  -1.107893134816301e+00  -2.828621161995659e+00   1.198278869085746e+00   4.085986110831422e-05
2017-01-01T10:26:30.000   1.642096497640268e+04   3.887470231006131e+04  -1.107484121473339e+00  -2.829492921318757e+00   1.196217309996345e+00   4.094280822807319e-05
2017-01-01T10:26:40.000   1.639266569507687e+04   3.888665417254686e+04  -1.107074278661565e+00  -2.830363179321880e+00   1.194155117873955e+00   4.102575536766118e-05
2017-01-01T10:26:50.000   1.636435771874317e+04   3.889858540992391e+04  -1.106663606379475e+00  -2.831231935550095e+00   1.192092293802089e+00   4.110870246716855e-05
2017-01-01T10:27:00.000   1.633604106229445e+04   3.891049601593196e+04  -1.106252104625924e+00  -2.832099189549779e+00   1.190028838863352e+00   4.119164946672585e-05
2017-01-01T10:27:10.000   1.630771574064512e+04   3.892238598431439e+04  -1.105839773400620e+00  -2.832964940867587e+00   1.187964754141922e+00   4.127459630641252e-05
2017-01-01T10:27:20.000   1.627938176874651e+04   3.893425530881059e+04  -1.105426612704303e+00  -2.833829189049879e+00   1.185900040724656e+00   4.135754292618906e-05
2017-01-01T10:27:30.000   1.625103916162074e+04   3.894610398314341e+04  -1.105012622539294e+00  -2.834691933641813e+00   1.183834699703570e+00   4.144048926582081e-05
2017-01-01T10:27:40.000   1.622268793427445e+04   3.895793200105464e+04  -1.104597802908209e+00  -2.835553174189915e+00   1.181768732169546e+00   4.152343526512211e-05
2017-01-01T10:27:50.000   1.619432810207315e+04   3.896973935615105e+04  -1.104182153819511e+00  -2.836412910230884e+00   1.179702139239618e+00   4.160638086288453e-05
2017-01-01T10:28:00.000   1.616595968028774e+04   3.898152604209150e+04  -1.103765675280802e+00  -2.837271141305195e+00   1.177634922023913e+00   4.168932599818021e-05
2017-01-01T10:28:10.000   1.613758268426301e+04   3.899329205251690e+04  -1.103348367301312e+00  -2.838127866952030e+00   1.175567081637943e+00   4.177227060987715e-05
2017-01-01T10:28:20.000   1.610919712876497e+04   3.900503738132142e+04  -1.102930229882299e+00  -2.838983086728987e+00   1.173498619155044e+00   4.185521463852605e-05
2017-01-01T10:28:30.000   1.608080302863185e+04   3.901676202238187e+04  -1.102511263026621e+00  -2.839836800192413e+00   1.171429535653802e+00   4.193815802447845e-05
2017-01-01T10:28:40.000   1.605240039862665e+04   3.902846596961941e+04  -1.102091466736575e+00  -2.840689006901874e+00   1.169359832207327e+00   4.202110070831033e-05
2017-01-01T10:28:50.000   1.602398925380390e+04   3.904014921684526e+04  -1.101670841019224e+00  -2.841539706408923e+00   1.167289509909960e+00   4.210404262976863e-05
2017-01-01T10:29:00.000   1.599556960923769e+04   3.905181175787588e+04  -1.101249385882475e+00  -2.842388898265499e+00   1.165218569857469e+00   4.218698372854832e-05
2017-01-01T10:29:10.000   1.596714148002121e+04   3.906345358653216e+04  -1.100827101335039e+00  -2.843236582023850e+00   1.163147013147008e+00   4.226992394429929e-05
2017-01-01T10:29:20.000   1.593870488154125e+04   3.907507469652998e+04  -1.100403987390594e+00  -2.844082757228584e+00   1.161074840897123e+00   4.235286321581085e-05
2017-01-01T10:29:30.000   1.591025982910888e+04   3.908667508162855e+04  -1.099980044062217e+00  -2.844927423427450e+00   1.159002054220835e+00   4.243580148210341e-05
2017-01-01T10:29:40.000   1.588180633810483e+04   3.909825473557150e+04  -1.099555271364565e+00  -2.845770580167069e+00   1.156928654236240e+00   4.251873868199995e-05
2017-01-01T10:29:50.000   1.585334442333736e+04   3.910981365234858e+04  -1.099129669304292e+00  -2.846612227011964e+00   1.154854642019717e+00   4.260167475601105e-05
2017-01-01T10:30:00.000   1.582487409968431e+04   3.912135182593376e+04  -1.098703237889620e+00  -2.847452363525524e+00   1.152780018652703e+00   4.268460964445063e-05
2017-01-01T10:30:10.000   1.579639538194802e+04   3.913286925034499e+04  -1.098275977128199e+00  -2.848290989274322e+00   1.150704785211139e+00   4.276754328786314e-05
2017-01-01T10:30:20.000   1.576790828522303e+04   3.914436591949200e+04  -1.097847887032516e+00  -2.849128103817051e+00   1.148628942792248e+00   4.285047562594108e-05
2017-01-01T10:30:30.000   1.573941282462345e+04   3.915584182729013e+04  -1.097418967615911e+00  -2.849963706712811e+00   1.146552492494679e+00   4.293340659833033e-05
2017-01-01T10:30:40.000   1.571090901528245e+04   3.916729696765906e+04  -1.096989218892525e+00  -2.850797797521009e+00   1.144475435418463e+00   4.301633614462809e-05
2017-01-01T10:30:50.000   1.568239687262747e+04   3.917873133441550e+04  -1.096558640881548e+00  -2.851630375793557e+00   1.142397772685073e+00   4.309926420358894e-05
2017-01-01T10:31:00.000   1.565387641200995e+04   3.919014492141890e+04  -1.096127233601549e+00  -2.852461441085470e+00   1.140319505410441e+00   4.318219071419618e-05
2017-01-01T10:31:10.000   1.562534764885387e+04   3.920153772251268e+04  -1.095694997072731e+00  -2.853290992950592e+00   1.138240634715776e+00   4.326511561523025e-05
2017-01-01T10:31:20.000   1.559681059800112e+04   3.921290973178553e+04  -1.095261931307024e+00  -2.854119030960625e+00   1.136161161679871e+00   4.334803884717498e-05
2017-01-01T10:31:30.000   1.556826527436766e+04   3.922426094330932e+04  -1.094828036318014e+00  -2.854945554686036e+00   1.134081087386913e+00   4.343096035030543e-05
2017-01-01T10:31:40.000   1.553971169277420e+04   3.923559135120677e+04  -1.094393312118388e+00  -2.855770563700999e+00   1.132000412914142e+00   4.351388006518344e-05
2017-01-01T10:31:50.000   1.551114986840123e+04   3.924690094946844e+04  -1.093957758726781e+00  -2.856594057570054e+00   1.129919139365011e+00   4.359679793132135e-05
2017-01-01T10:32:00.000   1.548257981641364e+04   3.925818973210414e+04  -1.093521376162142e+00  -2.857416035859144e+00   1.127837267841836e+00   4.367971388828810e-05
2017-01-01T10:32:10.000   1.545400155204447e+04   3.926945769310912e+04  -1.093084164444986e+00  -2.858236498133144e+00   1.125754799451889e+00   4.376262787545994e-05
2017-01-01T10:32:20.000   1.542541509057269e+04   3.928070482647463e+04  -1.092646123597108e+00  -2.859055443956631e+00   1.123671735305793e+00   4.384553983210570e-05
